{"type": "FeatureCollection", "features": [ {"type": "Feature", "properties": {"norad_id": 34962, "name": "COSMOS 2251 DEB", "group": "cosmos-2251-debris", "lat": 70.37741843079363, "lon": -59.85252780701866, "alt_km": 743.2044870552672, "timestamp": "2025-12-23T07:45:09.800691+00:00", "meta": {"OBJECT_NAME": "COSMOS 2251 DEB", "OBJECT_ID": "1993-036AER", "EPOCH": "2025-12-22T13:01:35.530176", "MEAN_MOTION": 14.46544161, "ECCENTRICITY": 0.00189039, "INCLINATION": 74.0281, "RA_OF_ASC_NODE": 175.0517, "ARG_OF_PERICENTER": 287.2321, "MEAN_ANOMALY": 72.6768, "EPHEMERIS_TYPE": 0, "CLASSIFICATION_TYPE": "U", "NORAD_CAT_ID": 34962, "ELEMENT_SET_NO": 999, "REV_AT_EPOCH": 87720, "BSTAR": 0.00036229259, "MEAN_MOTION_DOT": 1.281e-05, "MEAN_MOTION_DDOT": 0}, "tle": {"line1": "1 34962U 93036AER 25356.54277234  .00001281  00000+0  36229-3 0  9996", "line2": "2 34962  74.0281 175.0517 0018903 287.2321  72.6768 14.46544161877206"}}, "geometry": {"type": "Point", "coordinates": [-59.85252780701866, 70.37741843079363]}}, {"type": "Feature", "properties": {"norad_id": 34963, "name": "COSMOS 2251 DEB", "group": "cosmos-2251-debris", "lat": 5.464710629110828, "lon": -158.55855540145365, "alt_km": 701.832421891314, "timestamp": "2025-12-23T07:45:09.800701+00:00", "meta": {"OBJECT_NAME": "COSMOS 2251 DEB", "OBJECT_ID": "1993-036AES", "EPOCH": "2025-12-22T19:22:05.292480", "MEAN_MOTION": 14.51171721, "ECCENTRICITY": 0.00421225, "INCLINATION": 74.1708, "RA_OF_ASC_NODE": 23.9592, "ARG_OF_PERICENTER": 218.4859, "MEAN_ANOMALY": 141.3297, "EPHEMERIS_TYPE": 0, "CLASSIFICATION_TYPE": "U", "NORAD_CAT_ID": 34963, "ELEMENT_SET_NO": 999, "REV_AT_EPOCH": 86947, "BSTAR": 0.0011861563, "MEAN_MOTION_DOT": 4.738e-05, "MEAN_MOTION_DDOT": 0}, "tle": {"line1": "1 34963U 93036AES 25356.80700570  .00004738  00000+0  11862-2 0  9995", "line2": "2 34963  74.1708  23.9592 0042122 218.4859 141.3297 14.51171721869473"}}, "geometry": {"type": "Point", "coordinates": [-158.55855540145365, 5.464710629110828]}}, {"type": "Feature", "properties": {"norad_id": 34964, "name": "COSMOS 2251 DEB", "group": "cosmos-2251-debris", "lat": 63.97998964300604, "lon": 5.4997597153965065, "alt_km": 950.8129625148549, "timestamp": "2025-12-23T07:45:09.800711+00:00", "meta": {"OBJECT_NAME": "COSMOS 2251 DEB", "OBJECT_ID": "1993-036AET", "EPOCH": "2025-12-18T07:25:04.519776", "MEAN_MOTION": 14.00628567, "ECCENTRICITY": 0.02123167, "INCLINATION": 73.9712, "RA_OF_ASC_NODE": 338.1457, "ARG_OF_PERICENTER": 195.4091, "MEAN_ANOMALY": 164.0515, "EPHEMERIS_TYPE": 0, "CLASSIFICATION_TYPE": "U", "NORAD_CAT_ID": 34964, "ELEMENT_SET_NO": 999, "REV_AT_EPOCH": 84556, "BSTAR": 0.00089791859, "MEAN_MOTION_DOT": 1.6e-05, "MEAN_MOTION_DDOT": 0}, "tle": {"line1": "1 34964U 93036AET 25352.30908009  .00001600  00000+0  89792-3 0  9997", "line2": "2 34964  73.9712 338.1457 0212316 195.4091 164.0515 14.00628567845561"}}, "geometry": {"type": "Point", "coordinates": [5.4997597153965065, 63.97998964300604]}}, {"type": "Feature", "properties": {"norad_id": 34965, "name": "COSMOS 2251 DEB", "group": "cosmos-2251-debris", "lat": 7.920420882319184, "lon": -73.62509019034728, "alt_km": 722.7136205374445, "timestamp": "2025-12-23T07:45:09.800721+00:00", "meta": {"OBJECT_NAME": "COSMOS 2251 DEB", "OBJECT_ID": "1993-036AEU", "EPOCH": "2025-12-22T14:23:15.701856", "MEAN_MOTION": 14.48730461, "ECCENTRICITY": 0.00264392, "INCLINATION": 74.0517, "RA_OF_ASC_NODE": 110.009, "ARG_OF_PERICENTER": 236.0306, "MEAN_ANOMALY": 123.8341, "EPHEMERIS_TYPE": 0, "CLASSIFICATION_TYPE": "U", "NORAD_CAT_ID": 34965, "ELEMENT_SET_NO": 999, "REV_AT_EPOCH": 87256, "BSTAR": 0.00029767583, "MEAN_MOTION_DOT": 1.1e-05, "MEAN_MOTION_DDOT": 0}, "tle": {"line1": "1 34965U 93036AEU 25356.59948729  .00001100  00000+0  29768-3 0  9998", "line2": "2 34965  74.0517 110.0090 0026439 236.0306 123.8341 14.48730461872566"}}, "geometry": {"type": "Point", "coordinates": [-73.62509019034728, 7.920420882319184]}}, {"type": "Feature", "properties": {"norad_id": 34967, "name": "COSMOS 2251 DEB", "group": "cosmos-2251-debris", "lat": -73.42052262895562, "lon": 159.50392952903744, "alt_km": 757.3555488992606, "timestamp": "2025-12-23T07:45:09.800732+00:00", "meta": {"OBJECT_NAME": "COSMOS 2251 DEB", "OBJECT_ID": "1993-036AEW", "EPOCH": "2025-12-13T00:27:20.673792", "MEAN_MOTION": 14.44269018, "ECCENTRICITY": 0.00380101, "INCLINATION": 73.9933, "RA_OF_ASC_NODE": 253.3374, "ARG_OF_PERICENTER": 39.5345, "MEAN_ANOMALY": 320.8573, "EPHEMERIS_TYPE": 0, "CLASSIFICATION_TYPE": "U", "NORAD_CAT_ID": 34967, "ELEMENT_SET_NO": 999, "REV_AT_EPOCH": 64961, "BSTAR": 0.0011451852, "MEAN_MOTION_DOT": 3.946e-05, "MEAN_MOTION_DDOT": 0}, "tle": {"line1": "1 34967U 93036AEW 25347.01898928  .00003946  00000+0  11452-2 0  9992", "line2": "2 34967  73.9933 253.3374 0038010  39.5345 320.8573 14.44269018649616"}}, "geometry": {"type": "Point", "coordinates": [159.50392952903744, -73.42052262895562]}}, {"type": "Feature", "properties": {"norad_id": 34968, "name": "COSMOS 2251 DEB", "group": "cosmos-2251-debris", "lat": -14.204372208363587, "lon": -137.2580978369164, "alt_km": 637.7324805138069, "timestamp": "2025-12-23T07:45:09.800742+00:00", "meta": {"OBJECT_NAME": "COSMOS 2251 DEB", "OBJECT_ID": "1993-036AEX", "EPOCH": "2025-12-22T08:47:13.306272", "MEAN_MOTION": 14.59421567, "ECCENTRICITY": 0.00870744, "INCLINATION": 74.0382, "RA_OF_ASC_NODE": 228.7199, "ARG_OF_PERICENTER": 346.7136, "MEAN_ANOMALY": 13.1735, "EPHEMERIS_TYPE": 0, "CLASSIFICATION_TYPE": "U", "NORAD_CAT_ID": 34968, "ELEMENT_SET_NO": 999, "REV_AT_EPOCH": 88618, "BSTAR": 0.00012799601, "MEAN_MOTION_DOT": 6.07e-06, "MEAN_MOTION_DDOT": 0}, "tle": {"line1": "1 34968U 93036AEX 25356.36612623  .00000607  00000+0  12800-3 0  9997", "line2": "2 34968  74.0382 228.7199 0087074 346.7136  13.1735 14.59421567886185"}}, "geometry": {"type": "Point", "coordinates": [-137.2580978369164, -14.204372208363587]}}, {"type": "Feature", "properties": {"norad_id": 34969, "name": "COSMOS 2251 DEB", "group": "cosmos-2251-debris", "lat": 54.30717324937766, "lon": 160.2861033556004, "alt_km": 727.3709900897738, "timestamp": "2025-12-23T07:45:09.800752+00:00", "meta": {"OBJECT_NAME": "COSMOS 2251 DEB", "OBJECT_ID": "1993-036AEY", "EPOCH": "2025-12-21T18:18:22.827744", "MEAN_MOTION": 14.32268431, "ECCENTRICITY": 0.00731947, "INCLINATION": 74.0139, "RA_OF_ASC_NODE": 6.6546, "ARG_OF_PERICENTER": 137.5862, "MEAN_ANOMALY": 223.0979, "EPHEMERIS_TYPE": 0, "CLASSIFICATION_TYPE": "U", "NORAD_CAT_ID": 34969, "ELEMENT_SET_NO": 999, "REV_AT_EPOCH": 65266, "BSTAR": 0.0001981389, "MEAN_MOTION_DOT": 5.25e-06, "MEAN_MOTION_DDOT": 0}, "tle": {"line1": "1 34969U 93036AEY 25355.76276421  .00000525  00000+0  19814-3 0  9994", "line2": "2 34969  74.0139   6.6546 0073194 137.5862 223.0979 14.32268431652661"}}, "geometry": {"type": "Point", "coordinates": [160.2861033556004, 54.30717324937766]}}, {"type": "Feature", "properties": {"norad_id": 34971, "name": "COSMOS 2251 DEB", "group": "cosmos-2251-debris", "lat": -73.09154302981213, "lon": 155.8371803898707, "alt_km": 749.7636859820805, "timestamp": "2025-12-23T07:45:09.800787+00:00", "meta": {"OBJECT_NAME": "COSMOS 2251 DEB", "OBJECT_ID": "1993-036AFA", "EPOCH": "2025-12-18T11:38:13.277760", "MEAN_MOTION": 14.55642375, "ECCENTRICITY": 0.00693978, "INCLINATION": 73.9787, "RA_OF_ASC_NODE": 274.0839, "ARG_OF_PERICENTER": 138.3039, "MEAN_ANOMALY": 342.538, "EPHEMERIS_TYPE": 0, "CLASSIFICATION_TYPE": "U", "NORAD_CAT_ID": 34971, "ELEMENT_SET_NO": 999, "REV_AT_EPOCH": 66256, "BSTAR": 0.00012982435, "MEAN_MOTION_DOT": 5.55e-06, "MEAN_MOTION_DDOT": 0}, "tle": {"line1": "1 34971U 93036AFA 25352.48487590  .00000555  00000+0  12982-3 0  9996", "line2": "2 34971  73.9787 274.0839 0069397 138.3039 342.5380 14.55642375662563"}}, "geometry": {"type": "Point", "coordinates": [155.8371803898707, -73.09154302981213]}}, {"type": "Feature", "properties": {"norad_id": 34972, "name": "COSMOS 2251 DEB", "group": "cosmos-2251-debris", "lat": 73.7481731276813, "lon": 129.08795408647597, "alt_km": 645.3178298264675, "timestamp": "2025-12-23T07:45:09.800798+00:00", "meta": {"OBJECT_NAME": "COSMOS 2251 DEB", "OBJECT_ID": "1993-036AFB", "EPOCH": "2025-12-20T04:37:09.782112", "MEAN_MOTION": 14.72993078, "ECCENTRICITY": 0.0033079, "INCLINATION": 73.988, "RA_OF_ASC_NODE": 35.2981, "ARG_OF_PERICENTER": 193.0312, "MEAN_ANOMALY": 226.1658, "EPHEMERIS_TYPE": 0, "CLASSIFICATION_TYPE": "U", "NORAD_CAT_ID": 34972, "ELEMENT_SET_NO": 999, "REV_AT_EPOCH": 87760, "BSTAR": 0.00080503, "MEAN_MOTION_DOT": 5.185e-05, "MEAN_MOTION_DDOT": 0}, "tle": {"line1": "1 34972U 93036AFB 25354.19247433  .00005185  00000+0  80503-3 0  9995", "line2": "2 34972  73.9880  35.2981 0033079 193.0312 226.1658 14.72993078877609"}}, "geometry": {"type": "Point", "coordinates": [129.08795408647597, 73.7481731276813]}}, {"type": "Feature", "properties": {"norad_id": 34976, "name": "COSMOS 2251 DEB", "group": "cosmos-2251-debris", "lat": -30.667369039406417, "lon": -84.2215952490919, "alt_km": 611.5919351952471, "timestamp": "2025-12-23T07:45:09.800808+00:00", "meta": {"OBJECT_NAME": "COSMOS 2251 DEB", "OBJECT_ID": "1993-036AFF", "EPOCH": "2025-12-22T20:46:21.906912", "MEAN_MOTION": 14.7677373, "ECCENTRICITY": 0.00478521, "INCLINATION": 74.0584, "RA_OF_ASC_NODE": 286.4319, "ARG_OF_PERICENTER": 331.0215, "MEAN_ANOMALY": 85.833, "EPHEMERIS_TYPE": 0, "CLASSIFICATION_TYPE": "U", "NORAD_CAT_ID": 34976, "ELEMENT_SET_NO": 999, "REV_AT_EPOCH": 88423, "BSTAR": 0.001579307, "MEAN_MOTION_DOT": 0.00011269, "MEAN_MOTION_DDOT": 0}, "tle": {"line1": "1 34976U 93036AFF 25356.86553133  .00011269  00000+0  15793-2 0  9990", "line2": "2 34976  74.0584 286.4319 0047852 331.0215  85.8330 14.76773730884230"}}, "geometry": {"type": "Point", "coordinates": [-84.2215952490919, -30.667369039406417]}}]}